ONEWEB-0092             
1 45437U 20020P   25216.92115881  .00000343  00000+0  93136-3 0  9992
2 45437  87.8801  84.0950 0001605  91.5674 268.5638 13.11419608261334
ONEWEB-0085             
1 45438U 20020Q   25217.17887566  .00000030  00000+0  49205-4 0  9999
2 45438  87.8798  84.0551 0001618  84.9024 275.2289 13.11414622261266
ONEWEB-0096             
1 45439U 20020R   25216.88300261 -.00000405  00000+0 -11783-2 0  9995
2 45439  87.8812  84.0819 0001933  81.3338 278.8009 13.11413859261204
ONEWEB-0037             
1 45440U 20020S   25216.93982448  .00000147  00000+0  37998-3 0  9994
2 45440  87.8814  84.0350 0001661  83.1498 276.9819 13.11414096261249
ONEWEB-0042             
1 45441U 20020T   25216.87268094 -.00000001  00000+0 -38803-4 0  9990
2 45441  87.8804  84.0930 0001771  84.9898 275.1432 13.11418089261202
ONEWEB-0098             
1 45442U 20020U   25216.86860481  .00000119  00000+0  30101-3 0  9998
2 45442  87.8805  84.1041 0001686  72.1440 287.9871 13.11414182261180
ONEWEB-0055             
1 45443U 20020V   25216.92795085  .00000626  00000+0  17306-2 0  9997
2 45443  87.8800  84.0941 0001744  77.6230 282.5093 13.11417945261161
ONEWEB-0093             
1 45444U 20020W   25216.90349539 -.00000259  00000+0 -76666-3 0  9994
2 45444  87.8806  84.0837 0002084  90.8831 269.2536 13.11417987261221
ONEWEB-0029             
1 45445U 20020X   25216.91946975  .00000404  00000+0  11049-2 0  9996
2 45445  87.8807  84.0924 0001892  80.9995 279.1347 13.11419055261203
ONEWEB-0068             
1 45446U 20020Y   25216.90321076 -.00000265  00000+0 -78271-3 0  9993
2 45446  87.8806  84.0847 0001924  81.7366 278.3980 13.11419517261155
ONEWEB-0046             
1 45447U 20020Z   25217.12376429 -.00000489  00000+0 -14146-2 0  9999
2 45447  87.8804  84.0506 0001841  89.3632 270.7707 13.11417836261193
ONEWEB-0063             
1 45448U 20020AA  25216.92370569  .00000576  00000+0  15906-2 0  9996
2 45448  87.8808  84.0887 0001608  86.6638 273.4674 13.11419350261249
ONEWEB-0019             
1 45449U 20020AB  25216.89741238 -.00000412  00000+0 -11981-2 0  9998
2 45449  87.8808  84.1111 0001848  77.6615 282.4719 13.11416862261090
ONEWEB-0094             
1 45450U 20020AC  25216.85523758 -.00000006  00000+0 -48239-4 0  9998
2 45450  87.9033  68.7910 0001829  87.2245 272.9096 13.17647769264658
ONEWEB-0087             
1 45451U 20020AD  25216.93374253  .00000548  00000+0  15110-2 0  9991
2 45451  87.8800  84.0372 0001986  84.3041 275.8314 13.11417051261137
ONEWEB-0082             
1 45452U 20020AE  25217.15938294  .00002756  00000+0  77357-2 0  9992
2 45452  87.8798  84.0169 0001905  80.2578 279.8765 13.11431299261267
ONEWEB-0050             
1 45453U 20020AF  25216.91368493  .00002440  00000+0  24507-3 0  9994
2 45453  87.9974 282.9861 0004376  64.7786 295.3896 14.90896519293290
