[{"OBJECT_NAME":"ONEWEB-0092","OBJECT_ID":"2020-020P","EPOCH":"2025-08-04T22:06:28.121184","MEAN_MOTION":13.11419608,"ECCENTRICITY":0.0001605,"INCLINATION":87.8801,"RA_OF_ASC_NODE":84.095,"ARG_OF_PERICENTER":91.5674,"MEAN_ANOMALY":268.5638,"EPHEMERIS_TYPE":0,"CLASSIFICATION_TYPE":"U","NORAD_CAT_ID":45437,"ELEMENT_SET_NO":999,"REV_AT_EPOCH":26133,"BSTAR":0.00093136,"MEAN_MOTION_DOT":3.43e-6,"MEAN_MOTION_DDOT":0},{"OBJECT_NAME":"ONEWEB-0085","OBJECT_ID":"2020-020Q","EPOCH":"2025-08-05T04:17:34.857024","MEAN_MOTION":13.11414622,"ECCENTRICITY":0.0001618,"INCLINATION":87.8798,"RA_OF_ASC_NODE":84.0551,"ARG_OF_PERICENTER":84.9024,"MEAN_ANOMALY":275.2289,"EPHEMERIS_TYPE":0,"CLASSIFICATION_TYPE":"U","NORAD_CAT_ID":45438,"ELEMENT_SET_NO":999,"REV_AT_EPOCH":26126,"BSTAR":4.9205e-5,"MEAN_MOTION_DOT":3.0e-7,"MEAN_MOTION_DDOT":0},{"OBJECT_NAME":"ONEWEB-0096","OBJECT_ID":"2020-020R","EPOCH":"2025-08-04T21:11:31.425504","MEAN_MOTION":13.11413859,"ECCENTRICITY":0.0001933,"INCLINATION":87.8812,"RA_OF_ASC_NODE":84.0819,"ARG_OF_PERICENTER":81.3338,"MEAN_ANOMALY":278.8009,"EPHEMERIS_TYPE":0,"CLASSIFICATION_TYPE":"U","NORAD_CAT_ID":45439,"ELEMENT_SET_NO":999,"REV_AT_EPOCH":26120,"BSTAR":-0.0011783,"MEAN_MOTION_DOT":-4.05e-6,"MEAN_MOTION_DDOT":0},{"OBJECT_NAME":"ONEWEB-0037","OBJECT_ID":"2020-020S","EPOCH":"2025-08-04T22:33:20.835072","MEAN_MOTION":13.11414096,"ECCENTRICITY":0.0001661,"INCLINATION":87.8814,"RA_OF_ASC_NODE":84.035,"ARG_OF_PERICENTER":83.1498,"MEAN_ANOMALY":276.9819,"EPHEMERIS_TYPE":0,"CLASSIFICATION_TYPE":"U","NORAD_CAT_ID":45440,"ELEMENT_SET_NO":999,"REV_AT_EPOCH":26124,"BSTAR":0.00037998,"MEAN_MOTION_DOT":1.47e-6,"MEAN_MOTION_DDOT":0},{"OBJECT_NAME":"ONEWEB-0042","OBJECT_ID":"2020-020T","EPOCH":"2025-08-04T20:56:39.633216","MEAN_MOTION":13.11418089,"ECCENTRICITY":0.0001771,"INCLINATION":87.8804,"RA_OF_ASC_NODE":84.093,"ARG_OF_PERICENTER":84.9898,"MEAN_ANOMALY":275.1432,"EPHEMERIS_TYPE":0,"CLASSIFICATION_TYPE":"U","NORAD_CAT_ID":45441,"ELEMENT_SET_NO":999,"REV_AT_EPOCH":26120,"BSTAR":-3.8803e-5,"MEAN_MOTION_DOT":-1.0e-8,"MEAN_MOTION_DDOT":0},{"OBJECT_NAME":"ONEWEB-0098","OBJECT_ID":"2020-020U","EPOCH":"2025-08-04T20:50:47.455584","MEAN_MOTION":13.11414182,"ECCENTRICITY":0.0001686,"INCLINATION":87.8805,"RA_OF_ASC_NODE":84.1041,"ARG_OF_PERICENTER":72.144,"MEAN_ANOMALY":287.9871,"EPHEMERIS_TYPE":0,"CLASSIFICATION_TYPE":"U","NORAD_CAT_ID":45442,"ELEMENT_SET_NO":999,"REV_AT_EPOCH":26118,"BSTAR":0.00030101,"MEAN_MOTION_DOT":1.19e-6,"MEAN_MOTION_DDOT":0},{"OBJECT_NAME":"ONEWEB-0055","OBJECT_ID":"2020-020V","EPOCH":"2025-08-04T22:16:14.953440","MEAN_MOTION":13.11417945,"ECCENTRICITY":0.0001744,"INCLINATION":87.88,"RA_OF_ASC_NODE":84.0941,"ARG_OF_PERICENTER":77.623,"MEAN_ANOMALY":282.5093,"EPHEMERIS_TYPE":0,"CLASSIFICATION_TYPE":"U","NORAD_CAT_ID":45443,"ELEMENT_SET_NO":999,"REV_AT_EPOCH":26116,"BSTAR":0.0017306,"MEAN_MOTION_DOT":6.26e-6,"MEAN_MOTION_DDOT":0},{"OBJECT_NAME":"ONEWEB-0093","OBJECT_ID":"2020-020W","EPOCH":"2025-08-04T21:41:02.001696","MEAN_MOTION":13.11417987,"ECCENTRICITY":0.0002084,"INCLINATION":87.8806,"RA_OF_ASC_NODE":84.0837,"ARG_OF_PERICENTER":90.8831,"MEAN_ANOMALY":269.2536,"EPHEMERIS_TYPE":0,"CLASSIFICATION_TYPE":"U","NORAD_CAT_ID":45444,"ELEMENT_SET_NO":999,"REV_AT_EPOCH":26122,"BSTAR":-0.00076666,"MEAN_MOTION_DOT":-2.59e-6,"MEAN_MOTION_DDOT":0},{"OBJECT_NAME":"ONEWEB-0029","OBJECT_ID":"2020-020X","EPOCH":"2025-08-04T22:04:02.186400","MEAN_MOTION":13.11419055,"ECCENTRICITY":0.0001892,"INCLINATION":87.8807,"RA_OF_ASC_NODE":84.0924,"ARG_OF_PERICENTER":80.9995,"MEAN_ANOMALY":279.1347,"EPHEMERIS_TYPE":0,"CLASSIFICATION_TYPE":"U","NORAD_CAT_ID":45445,"ELEMENT_SET_NO":999,"REV_AT_EPOCH":26120,"BSTAR":0.0011049,"MEAN_MOTION_DOT":4.04e-6,"MEAN_MOTION_DDOT":0},{"OBJECT_NAME":"ONEWEB-0068","OBJECT_ID":"2020-020Y","EPOCH":"2025-08-04T21:40:37.409664","MEAN_MOTION":13.11419517,"ECCENTRICITY":0.0001924,"INCLINATION":87.8806,"RA_OF_ASC_NODE":84.0847,"ARG_OF_PERICENTER":81.7366,"MEAN_ANOMALY":278.398,"EPHEMERIS_TYPE":0,"CLASSIFICATION_TYPE":"U","NORAD_CAT_ID":45446,"ELEMENT_SET_NO":999,"REV_AT_EPOCH":26115,"BSTAR":-0.00078271,"MEAN_MOTION_DOT":-2.65e-6,"MEAN_MOTION_DDOT":0},{"OBJECT_NAME":"ONEWEB-0046","OBJECT_ID":"2020-020Z","EPOCH":"2025-08-05T02:58:13.234656","MEAN_MOTION":13.11417836,"ECCENTRICITY":0.0001841,"INCLINATION":87.8804,"RA_OF_ASC_NODE":84.0506,"ARG_OF_PERICENTER":89.3632,"MEAN_ANOMALY":270.7707,"EPHEMERIS_TYPE":0,"CLASSIFICATION_TYPE":"U","NORAD_CAT_ID":45447,"ELEMENT_SET_NO":999,"REV_AT_EPOCH":26119,"BSTAR":-0.0014146,"MEAN_MOTION_DOT":-4.89e-6,"MEAN_MOTION_DDOT":0},{"OBJECT_NAME":"ONEWEB-0063","OBJECT_ID":"2020-020AA","EPOCH":"2025-08-04T22:10:08.171616","MEAN_MOTION":13.1141935,"ECCENTRICITY":0.0001608,"INCLINATION":87.8808,"RA_OF_ASC_NODE":84.0887,"ARG_OF_PERICENTER":86.6638,"MEAN_ANOMALY":273.4674,"EPHEMERIS_TYPE":0,"CLASSIFICATION_TYPE":"U","NORAD_CAT_ID":45448,"ELEMENT_SET_NO":999,"REV_AT_EPOCH":26124,"BSTAR":0.0015906,"MEAN_MOTION_DOT":5.76e-6,"MEAN_MOTION_DDOT":0},{"OBJECT_NAME":"ONEWEB-0019","OBJECT_ID":"2020-020AB","EPOCH":"2025-08-04T21:32:16.429632","MEAN_MOTION":13.11416862,"ECCENTRICITY":0.0001848,"INCLINATION":87.8808,"RA_OF_ASC_NODE":84.1111,"ARG_OF_PERICENTER":77.6615,"MEAN_ANOMALY":282.4719,"EPHEMERIS_TYPE":0,"CLASSIFICATION_TYPE":"U","NORAD_CAT_ID":45449,"ELEMENT_SET_NO":999,"REV_AT_EPOCH":26109,"BSTAR":-0.0011981,"MEAN_MOTION_DOT":-4.12e-6,"MEAN_MOTION_DDOT":0},{"OBJECT_NAME":"ONEWEB-0094","OBJECT_ID":"2020-020AC","EPOCH":"2025-08-04T20:31:32.526912","MEAN_MOTION":13.17647769,"ECCENTRICITY":0.0001829,"INCLINATION":87.9033,"RA_OF_ASC_NODE":68.791,"ARG_OF_PERICENTER":87.2245,"MEAN_ANOMALY":272.9096,"EPHEMERIS_TYPE":0,"CLASSIFICATION_TYPE":"U","NORAD_CAT_ID":45450,"ELEMENT_SET_NO":999,"REV_AT_EPOCH":26465,"BSTAR":-4.8239e-5,"MEAN_MOTION_DOT":-6.0e-8,"MEAN_MOTION_DDOT":0},{"OBJECT_NAME":"ONEWEB-0087","OBJECT_ID":"2020-020AD","EPOCH":"2025-08-04T22:24:35.354592","MEAN_MOTION":13.11417051,"ECCENTRICITY":0.0001986,"INCLINATION":87.88,"RA_OF_ASC_NODE":84.0372,"ARG_OF_PERICENTER":84.3041,"MEAN_ANOMALY":275.8314,"EPHEMERIS_TYPE":0,"CLASSIFICATION_TYPE":"U","NORAD_CAT_ID":45451,"ELEMENT_SET_NO":999,"REV_AT_EPOCH":26113,"BSTAR":0.001511,"MEAN_MOTION_DOT":5.48e-6,"MEAN_MOTION_DDOT":0},{"OBJECT_NAME":"ONEWEB-0082","OBJECT_ID":"2020-020AE","EPOCH":"2025-08-05T03:49:30.686016","MEAN_MOTION":13.11431299,"ECCENTRICITY":0.0001905,"INCLINATION":87.8798,"RA_OF_ASC_NODE":84.0169,"ARG_OF_PERICENTER":80.2578,"MEAN_ANOMALY":279.8765,"EPHEMERIS_TYPE":0,"CLASSIFICATION_TYPE":"U","NORAD_CAT_ID":45452,"ELEMENT_SET_NO":999,"REV_AT_EPOCH":26126,"BSTAR":0.0077357,"MEAN_MOTION_DOT":2.756e-5,"MEAN_MOTION_DDOT":0},{"OBJECT_NAME":"ONEWEB-0050","OBJECT_ID":"2020-020AF","EPOCH":"2025-08-04T21:55:42.377952","MEAN_MOTION":14.90896519,"ECCENTRICITY":0.0004376,"INCLINATION":87.9974,"RA_OF_ASC_NODE":282.9861,"ARG_OF_PERICENTER":64.7786,"MEAN_ANOMALY":295.3896,"EPHEMERIS_TYPE":0,"CLASSIFICATION_TYPE":"U","NORAD_CAT_ID":45453,"ELEMENT_SET_NO":999,"REV_AT_EPOCH":29329,"BSTAR":0.00024507,"MEAN_MOTION_DOT":2.44e-5,"MEAN_MOTION_DDOT":0}]
